STARLINK-3642           
1 51989U 22025AK  22083.83334491  .00107156  00000+0  75971-3 0  9994
2 51989  53.2191  64.1646 0001298  75.4012 202.8687 15.73153766  3685
STARLINK-3657           
1 51990U 22025AL  22083.83334491  .00039997  00000+0  28844-3 0  9990
2 51990  53.2181  64.1574 0000806  79.8746 202.2698 15.73167812  3685
STARLINK-3652           
1 51991U 22025AM  22083.83334491  .00058078  00000+0  41592-3 0  9997
2 51991  53.2178  64.1618 0001090  75.8658 203.7100 15.73169226  3679
STARLINK-3643           
1 51992U 22025AN  22083.83334491  .00038152  00000+0  27521-3 0  9995
2 51992  53.2180  64.1536 0000936  90.6630 193.3639 15.73183649  3693
STARLINK-3648           
1 51993U 22025AP  22083.83334491  .00053165  00000+0  38122-3 0  9996
2 51993  53.2176  64.1578 0001068  71.1502 210.3781 15.73176007  3692
STARLINK-3647           
1 51994U 22025AQ  22084.00002315  .00047506  00000+0  34115-3 0  9994
2 51994  53.2186  63.3285 0001310  88.0076  61.1438 15.73189007  3711
STARLINK-3636           
1 51995U 22025AR  22083.91667824 -.00031222  00000+0 -21858-3 0  9996
2 51995  53.2192  63.7435 0001106  85.3612 309.6398 15.73231181  3681
STARLINK-3538           
1 51996U 22025AS  22083.91667824 -.00001396  00000+0 -55338-5 0  9998
2 51996  53.2184  63.7386 0001129  77.5839 319.9928 15.73194616  3692
STARLINK-3589           
1 51997U 22025AT  22084.00002315  .00038419  00000+0  27714-3 0  9997
2 51997  53.2182  63.3303 0000905  93.5104  54.4164 15.73179979  3698
STARLINK-3618           
1 51998U 22025AU  22083.91667824  .00085113  00000+0  60696-3 0  9998
2 51998  53.2186  63.7364 0001238  84.4335 314.3773 15.73113740  3686
STARLINK-3667           
1 51999U 22025AV  22083.91667824 -.00034484  00000+0 -24229-3 0  9998
2 51999  53.2182  63.7370 0001185  78.8014 319.3967 15.73199994  3687
STARLINK-3653           
1 52000U 22025AW  22083.91667824  .00084435  00000+0  60122-3 0  9993
2 52000  53.2186  63.7339 0001312  92.4079 307.6829 15.73152013  3706
STARLINK-3659           
1 52001U 22025AX  22083.91667824  .00087828  00000+0  62429-3 0  9995
2 52001  53.2181  63.7344 0001010  87.6570 311.7855 15.73177110  3705
STARLINK-3668           
1 52002U 22025AY  22083.91667824 -.00032608  00000+0 -22834-3 0  9990
2 52002  53.2186  63.7328 0001297  91.5910 309.1076 15.73248490  3685
STARLINK-3654           
1 52003U 22025AZ  22083.91667824  .00019195  00000+0  14085-3 0  9994
2 52003  53.2184  63.7307 0001185  75.0882 326.2531 15.73203266  3680
FALCON 9 DEB            
1 52004U 22025BA  22083.82931329  .00222603  29738-4  64718-3 0  9991
2 52004  53.2279  63.2488 0005329 288.8392  71.2058 15.92494119  2595
FALCON 9 DEB            
1 52005U 22025BB  22083.94996035  .00260355  36980-4  72103-3 0  9990
2 52005  53.2252  62.5736 0005582 261.1200  98.9197 15.93375248  2613
FALCON 9 DEB            
1 52006U 22025BC  22083.37437096  .00247216  34740-4  64566-3 0  9992
2 52006  53.2221  65.3687 0009652 276.4451  83.5479 15.94431280  2528
FALCON 9 DEB            
1 52007U 22025BD  22083.93595024  .00241089  33671-4  61870-3 0  9990
2 52007  53.2217  62.4687 0010143 262.6003  97.3874 15.94755391  2613
2022-026A               
1 52008U 22026A   22083.88383411  .00009814  00000+0  45532-3 0  9991
2 52008  97.4886  84.9734 0047629 239.9443 119.7063 15.19222868  1402
2022-026B               
1 52009U 22026B   22083.52082516  .00006384  00000+0  35485-3 0  9990
2 52009  97.5038  84.5471 0027468 203.8114 156.1849 15.13718198  1330
2022-026C               
1 52010U 22026C   22083.91780314  .00006462  00000+0  35977-3 0  9999
2 52010  97.5051  84.9374 0026888 204.9375 155.0559 15.13665527  1400
2022-026D               
1 52011U 22026D   22082.46363030 -.00000067  00000+0  00000+0 0  9992
2 52011  97.5007  83.5048 0026866 207.5582 152.4339 15.13572263  1175
2022-026E               
1 52012U 22026E   22083.91758161  .00008375  00000+0  46465-3 0  9995
2 52012  97.5053  84.9390 0026332 206.0957 153.8949 15.13712289  1402
2022-026F               
1 52013U 22026F   22083.05812453  .00007131  00000+0  39576-3 0  9990
2 52013  97.5038  84.0909 0028215 202.8005 157.1976 15.13712050  1260
2022-026G               
1 52014U 22026G   22083.85139579  .00008226  00000+0  45595-3 0  9994
2 52014  97.5040  84.8726 0027569 203.3162 156.6821 15.13722855  1380
2022-026H               
1 52015U 22026H   22083.52081028  .00006242  00000+0  34700-3 0  9996
2 52015  97.5055  84.5474 0027587 203.7969 156.1989 15.13719653  1330
2022-026J               
1 52016U 22026J   22083.98352471  .00005282  00000+0  29417-3 0  9992
2 52016  97.5038  85.0030 0027512 202.1221 157.8825 15.13728972  1407
2022-026K               
1 52017U 22026K   22083.85141029  .00004880  00000+0  27234-3 0  9992
2 52017  97.5037  84.8726 0027393 202.9562 157.0447 15.13697236  1386
2022-026L               
1 52018U 22026L   22083.58677477  .00007070  00000+0  39209-3 0  9993
2 52018  97.5058  84.6134 0027655 203.4366 156.5607 15.13755407  1343
2022-026M               
1 52019U 22026M   22083.19017012  .00009275  00000+0  51313-3 0  9993
2 52019  97.5052  84.2219 0027476 205.0389 154.9511 15.13753714  1246
2022-026N               
1 52020U 22026N   22082.99196284  .00005893  00000+0  32791-3 0  9992
2 52020  97.5041  84.0262 0027356 205.9049 154.0815 15.13713824  1203
2022-026P               
1 52021U 22026P   22083.52077081  .00007584  00000+0  42039-3 0  9991
2 52021  97.5042  84.5474 0028031 202.9470 157.0512 15.13735069  1203
2022-026Q               
1 52022U 22026Q   22083.52076279  .00006327  00000+0  35156-3 0  9996
2 52022  97.5053  84.5476 0027520 203.9752 156.0200 15.13729234  1204
2022-026R               
1 52023U 22026R   22083.52075545  .00006414  00000+0  35634-3 0  9990
2 52023  97.5054  84.5476 0027512 204.0131 155.9819 15.13730569  1207
2022-026S               
1 52024U 22026S   22083.45458713  .00007974  00000+0  44154-3 0  9994
2 52024  97.5050  84.4820 0028264 202.2742 157.7264 15.13751034  1191
2022-026T               
1 52025U 22026T   22083.98343111  .00008146  00000+0  45118-3 0  9991
2 52025  97.5050  85.0035 0027558 202.3431 157.6602 15.13754239  1272
2022-026U               
1 52026U 22026U   22083.52067571  .00009289  00000+0  51377-3 0  9998
2 52026  97.5052  84.5477 0027594 204.0701 155.9243 15.13760308  1117
2022-026V               
1 52027U 22026V   22083.91742193  .00006781  00000+0  37659-3 0  9993
2 52027  97.5048  84.9378 0027216 203.0419 156.9594 15.13728803  1173
YAOGAN-34 02            
1 52084U 22027A   22083.47887730 -.00000035  00000+0  92520-4 0  9991
2 52084  63.3974 211.3262 0012939 262.9960  96.9592 13.46728577   974
CZ-4C R/B               
1 52085U 22027B   22083.59963712  .00000084  00000+0  21223-3 0  9994
2 52085  63.3980 210.3917 0102159  42.5756 318.3143 13.65322242  1005
SOYUZ-MS 21             
1 52086U 22028A   22083.54891759  .00006143  00000+0  11744-3 0  9991
2 52086  51.6448  35.7792 0003921 308.5274 206.8504 15.49525317332058
STARLINK-3537           
1 52088U 22029A   22083.91667824  .00165270  00000+0  57486-3 0  9999
2 52088  53.2167 115.7119 0010023 303.1437  30.1636 15.88355239  2168
STARLINK-3722           
1 52089U 22029B   22083.58334491 -.00872255  00000+0 -50950-2 0  9992
2 52089  53.2173 117.5237 0001128  78.2075  88.2754 15.79951367  1585
STARLINK-3712           
1 52090U 22029C   22083.91667824 -.00874251  00000+0 -52427-2 0  9999
2 52090  53.2174 115.8547 0001201  57.1453 207.0013 15.79384088  2154
STARLINK-3713           
1 52091U 22029D   22083.91667824 -.00874042  00000+0 -52516-2 0  9997
2 52091  53.2175 115.8554 0001108  68.2623 195.2299 15.79342164  2155
STARLINK-3716           
1 52092U 22029E   22084.00002315 -.00862527  00000+0 -52095-2 0  9994
2 52092  53.2174 115.4390 0001193  44.0686 333.8763 15.79197492  2163
STARLINK-3673           
1 52093U 22029F   22083.91667824 -.00874584  00000+0 -52244-2 0  9998
2 52093  53.2175 115.8513 0001320  47.4714 217.9685 15.79468391  2150
STARLINK-3714           
1 52094U 22029G   22083.91667824 -.00874246  00000+0 -52378-2 0  9992
2 52094  53.2175 115.8538 0001173  59.8927 204.5847 15.79404599  2159
STARLINK-3701           
1 52095U 22029H   22083.91667824 -.00874339  00000+0 -52142-2 0  9995
2 52095  53.2175 115.8499 0001157  60.6415 205.4955 15.79505714  2151
STARLINK-3717           
1 52096U 22029J   22083.91667824 -.00864223  00000+0 -36050-2 0  9997
2 52096  53.2172 115.7291 0006773 268.9879  59.6103 15.86896115  2154
STARLINK-3676           
1 52097U 22029K   22083.91667824  .00159385  00000+0  56217-3 0  9990
2 52097  53.2164 115.7181 0009385 303.0594  26.7265 15.88101537  2154
STARLINK-3665           
1 52098U 22029L   22083.91667824 -.00874284  00000+0 -52184-2 0  9993
2 52098  53.2175 115.8508 0001143  62.5823 203.2087 15.79486788  2155
STARLINK-3662           
1 52099U 22029M   22084.00002315  .00183498  00000+0  63916-3 0  9997
2 52099  53.2161 115.2916 0009378 307.9068 140.8353 15.88287008  2171
STARLINK-3702           
1 52100U 22029N   22084.00002315 -.00875816  00000+0 -52570-2 0  9997
2 52100  53.2173 115.4328 0001024  61.4903 319.1433 15.79369343  2168
STARLINK-3703           
1 52101U 22029P   22083.91667824 -.00874281  00000+0 -51840-2 0  9993
2 52101  53.2174 115.8455 0001119  65.9759 202.0775 15.79630929  2157
STARLINK-3709           
1 52102U 22029Q   22083.91667824 -.00874377  00000+0 -52048-2 0  9991
2 52102  53.2175 115.8485 0001160  59.1419 207.6549 15.79546038  2153
STARLINK-3705           
1 52103U 22029R   22083.91667824 -.00874303  00000+0 -51750-2 0  9990
2 52103  53.2174 115.8440 0001106  69.2004 199.5255 15.79669441  2153
STARLINK-3693           
1 52104U 22029S   22083.91667824  .00156883  00000+0  57108-3 0  9999
2 52104  53.2164 115.7359 0008512 290.3369  30.8248 15.87483609  2158
